OBJECT_NAME,OBJECT_ID,EPOCH,MEAN_MOTION,ECCENTRICITY,INCLINATION,RA_OF_ASC_NODE,ARG_OF_PERICENTER,MEAN_ANOMALY,EPHEMERIS_TYPE,CLASSIFICATION_TYPE,NORAD_CAT_ID,ELEMENT_SET_NO,REV_AT_EPOCH,BSTAR,MEAN_MOTION_DOT,MEAN_MOTION_DDOT
ONEWEB-0336,2021-083S,2026-07-18T06:18:38.132640,13.13468986,.00018156,87.8978,314.0430,91.8665,268.2672,0,U,49202,999,23499,-.511609E-3,-.174E-5,0
ONEWEB-0337,2021-083T,2026-07-18T06:33:04.600224,13.13469605,.00020328,87.8978,314.0466,94.2868,265.8493,0,U,49203,999,23499,-.72284158E-3,-.251E-5,0
ONEWEB-0338,2021-083U,2026-07-18T04:15:05.302944,13.20770361,.00021596,87.9181,268.2714,106.5261,253.6109,0,U,49204,999,24090,-.10812497E-3,-.31E-6,0
ONEWEB-0339,2021-083V,2026-07-18T06:45:27.311904,13.13469990,.00021852,87.8973,314.0382,105.2631,254.8740,0,U,49205,999,23497,-.46850195E-3,-.158E-5,0
ONEWEB-0340,2021-083W,2026-07-18T07:39:00.720576,13.18687556,.00018546,87.9200,329.2662,94.3066,265.8278,0,U,49206,999,23407,.15600928E-3,.74E-6,0
ONEWEB-0341,2021-083X,2026-07-18T02:20:55.757184,13.18687130,.00023018,87.9193,329.3113,89.1700,270.9696,0,U,49207,999,23406,-.11140435E-3,-.31E-6,0
ONEWEB-0342,2021-083Y,2026-07-18T04:24:47.139552,13.20773142,.00021708,87.9185,268.2601,100.9165,259.2213,0,U,49208,999,24087,.89443325E-4,.49E-6,0
ONEWEB-0343,2021-083Z,2026-07-18T02:33:04.590432,13.18687069,.00022737,87.9194,329.3084,105.3234,254.8150,0,U,49209,999,23411,.36506093E-4,.27E-6,0
ONEWEB-0344,2021-083AA,2026-07-17T19:39:57.052512,13.13469536,.00022398,87.8978,314.1428,90.9418,269.1968,0,U,49210,999,23491,-.58769315E-3,-.202E-5,0
ONEWEB-0345,2021-083AB,2026-07-18T06:25:56.935776,13.13470039,.00022209,87.8988,314.0387,93.6920,266.4463,0,U,49211,999,23498,-.66470921E-3,-.23E-5,0
ONEWEB-0346,2021-083AC,2026-07-17T21:00:25.912224,13.18687161,.00014553,87.9190,329.3534,82.1619,277.9678,0,U,49212,999,23402,.57792975E-4,.36E-6,0
ONEWEB-0348,2021-083AD,2026-07-18T04:10:14.848608,13.20772381,.00020225,87.9186,268.2667,83.3214,276.8149,0,U,49213,999,24090,.78605729E-4,.45E-6,0
ONEWEB-0350,2021-083AE,2026-07-18T06:52:56.980704,13.13472190,.00017333,87.8984,314.0399,132.6325,227.4951,0,U,49214,999,23501,-.13697393E-3,-.37E-6,0
ONEWEB-0351,2021-083AF,2026-07-18T04:00:21.077568,13.20771084,.00026881,87.9182,268.2669,102.2219,257.9216,0,U,49215,999,24086,-.29090155E-4,.1E-7,0
ONEWEB-0352,2021-083AG,2026-07-18T00:42:14.324544,13.13469473,.0002363,87.8981,314.0953,105.7615,254.3775,0,U,49216,999,23507,-.36592531E-3,-.121E-5,0
ONEWEB-0354,2021-083AH,2026-07-17T21:22:58.745280,13.20771683,.00021324,87.9185,268.3206,87.2743,272.8635,0,U,49217,999,24086,.17110797E-3,.83E-6,0
ONEWEB-0355,2021-083AJ,2026-07-18T06:53:57.300864,13.13468296,.00021573,87.8978,314.0446,99.8687,260.2686,0,U,49218,999,23498,.66510345E-4,.37E-6,0
ONEWEB-0357,2021-083AK,2026-07-18T04:34:28.875072,13.20770320,.00022691,87.9186,268.2541,100.5177,259.6212,0,U,49219,999,24090,.39308925E-3,.173E-5,0
ONEWEB-0332,2021-090A,2026-07-18T04:45:56.606112,13.14503995,.0002031,87.8962,283.5302,105.5167,254.6187,0,U,49279,999,23165,.16561066E-3,.74E-6,0
ONEWEB-0347,2021-090B,2026-07-18T04:19:56.420832,13.20770164,.0002067,87.9185,268.2644,106.7619,253.3741,0,U,49280,999,23513,.7522031E-4,.44E-6,0
ONEWEB-0349,2021-090C,2026-07-18T03:16:54.273792,13.20770162,.00020819,87.9182,268.2744,98.0334,262.1035,0,U,49281,999,23391,.24648234E-3,.113E-5,0
ONEWEB-0353,2021-090D,2026-07-18T04:34:31.899936,13.14502969,.00020086,87.8966,283.5281,107.2604,252.8746,0,U,49282,999,23165,-.48099856E-3,-.166E-5,0
ONEWEB-0356,2021-090E,2026-07-18T03:14:29.428512,13.20770703,.00012479,87.9180,268.2680,97.6820,262.4455,0,U,49283,999,23391,.183681E-3,.88E-6,0
ONEWEB-0358,2021-090F,2026-07-18T04:06:35.291520,13.20769952,.00019445,87.9186,268.2684,94.6586,265.4770,0,U,49284,999,23464,.19632314E-3,.93E-6,0
ONEWEB-0359,2021-090G,2026-07-18T03:53:16.099296,13.20770365,.00021031,87.9182,268.2626,91.1789,268.9585,0,U,49285,999,23462,-.13156525E-3,-.41E-6,0
ONEWEB-0360,2021-090H,2026-07-18T03:38:44.872800,13.20771182,.00021894,87.9183,268.2706,96.8827,263.2555,0,U,49286,999,23393,.1454187E-3,.72E-6,0
ONEWEB-0361,2021-090J,2026-07-18T03:12:03.085056,13.20772544,.00019866,87.9181,268.2731,94.6504,265.4857,0,U,49287,999,23438,-.1242336E-3,-.38E-6,0
ONEWEB-0362,2021-090K,2026-07-18T06:17:25.263744,13.19737934,.00023076,87.9182,298.7909,102.6313,257.5077,0,U,49288,999,23101,.35627174E-2,.144E-4,0
ONEWEB-0363,2021-090L,2026-07-18T03:33:52.910784,13.20772453,.00017649,87.9182,268.2700,95.5722,264.5612,0,U,49289,999,23439,.25375034E-3,.116E-5,0
ONEWEB-0364,2021-090M,2026-07-18T04:29:38.094144,13.20770564,.00020785,87.9184,268.2695,97.4013,262.7356,0,U,49290,999,23553,.12477432E-3,.64E-6,0
