ONEWEB-0336             
1 49202U 21083S   26199.26294135 -.00000174  00000+0 -51161-3 0  9990
2 49202  87.8978 314.0430 0001815  91.8665 268.2672 13.13468986234990
ONEWEB-0337             
1 49203U 21083T   26199.27296991 -.00000251  00000+0 -72284-3 0  9999
2 49203  87.8978 314.0466 0002032  94.2868 265.8493 13.13469605234997
ONEWEB-0338             
1 49204U 21083U   26199.17714471 -.00000031  00000+0 -10812-3 0  9992
2 49204  87.9181 268.2714 0002159 106.5261 253.6109 13.20770361240904
ONEWEB-0339             
1 49205U 21083V   26199.28156611 -.00000158  00000+0 -46850-3 0  9992
2 49205  87.8973 314.0382 0002185 105.2631 254.8740 13.13469990234979
ONEWEB-0340             
1 49206U 21083W   26199.31875834  .00000074  00000+0  15601-3 0  9997
2 49206  87.9200 329.2662 0001854  94.3066 265.8278 13.18687556234079
ONEWEB-0341             
1 49207U 21083X   26199.09786756 -.00000031  00000+0 -11140-3 0  9996
2 49207  87.9193 329.3113 0002301  89.1700 270.9696 13.18687130234066
ONEWEB-0342             
1 49208U 21083Y   26199.18387893  .00000049  00000+0  89443-4 0  9995
2 49208  87.9185 268.2601 0002170 100.9165 259.2213 13.20773142240875
ONEWEB-0343             
1 49209U 21083Z   26199.10630313  .00000027  00000+0  36506-4 0  9994
2 49209  87.9194 329.3084 0002273 105.3234 254.8150 13.18687069234110
ONEWEB-0344             
1 49210U 21083AA  26198.81941033 -.00000202  00000+0 -58769-3 0  9998
2 49210  87.8978 314.1428 0002239  90.9418 269.1968 13.13469536234916
ONEWEB-0345             
1 49211U 21083AB  26199.26802009 -.00000230  00000+0 -66471-3 0  9998
2 49211  87.8988 314.0387 0002220  93.6920 266.4463 13.13470039234986
ONEWEB-0346             
1 49212U 21083AC  26198.87529991  .00000036  00000+0  57793-4 0  9991
2 49212  87.9190 329.3534 0001455  82.1619 277.9678 13.18687161234024
ONEWEB-0348             
1 49213U 21083AD  26199.17378297  .00000045  00000+0  78606-4 0  9993
2 49213  87.9186 268.2667 0002022  83.3214 276.8149 13.20772381240900
ONEWEB-0350             
1 49214U 21083AE  26199.28677061 -.00000037  00000+0 -13697-3 0  9998
2 49214  87.8984 314.0399 0001733 132.6325 227.4951 13.13472190235013
ONEWEB-0351             
1 49215U 21083AF  26199.16691062  .00000001  00000+0 -29090-4 0  9998
2 49215  87.9182 268.2669 0002688 102.2219 257.9216 13.20771084240863
ONEWEB-0352             
1 49216U 21083AG  26199.02933246 -.00000121  00000+0 -36593-3 0  9996
2 49216  87.8981 314.0953 0002363 105.7615 254.3775 13.13469473235070
ONEWEB-0354             
1 49217U 21083AH  26198.89095770  .00000083  00000+0  17111-3 0  9992
2 49217  87.9185 268.3206 0002132  87.2743 272.8635 13.20771683240860
ONEWEB-0355             
1 49218U 21083AJ  26199.28746876  .00000037  00000+0  66510-4 0  9994
2 49218  87.8978 314.0446 0002157  99.8687 260.2686 13.13468296234986
ONEWEB-0357             
1 49219U 21083AK  26199.19061198  .00000173  00000+0  39309-3 0  9998
2 49219  87.9186 268.2541 0002269 100.5177 259.6212 13.20770320240901
ONEWEB-0332             
1 49279U 21090A   26199.19857183  .00000074  00000+0  16561-3 0  9994
2 49279  87.8962 283.5302 0002031 105.5167 254.6187 13.14503995231657
ONEWEB-0347             
1 49280U 21090B   26199.18051413  .00000044  00000+0  75220-4 0  9992
2 49280  87.9185 268.2644 0002067 106.7619 253.3741 13.20770164235130
ONEWEB-0349             
1 49281U 21090C   26199.13673928  .00000113  00000+0  24648-3 0  9993
2 49281  87.9182 268.2744 0002081  98.0334 262.1035 13.20770162233918
ONEWEB-0353             
1 49282U 21090D   26199.19064699 -.00000166  00000+0 -48100-3 0  9998
2 49282  87.8966 283.5281 0002008 107.2604 252.8746 13.14502969231651
ONEWEB-0356             
1 49283U 21090E   26199.13506283  .00000088  00000+0  18368-3 0  9997
2 49283  87.9180 268.2680 0001247  97.6820 262.4455 13.20770703233915
ONEWEB-0358             
1 49284U 21090F   26199.17124180  .00000093  00000+0  19632-3 0  9995
2 49284  87.9186 268.2684 0001944  94.6586 265.4770 13.20769952234644
ONEWEB-0359             
1 49285U 21090G   26199.16199189 -.00000041  00000+0 -13157-3 0  9997
2 49285  87.9182 268.2626 0002103  91.1789 268.9585 13.20770365234622
ONEWEB-0360             
1 49286U 21090H   26199.15190825  .00000072  00000+0  14542-3 0  9996
2 49286  87.9183 268.2706 0002189  96.8827 263.2555 13.20771182233938
ONEWEB-0361             
1 49287U 21090J   26199.13336904 -.00000038  00000+0 -12423-3 0  9995
2 49287  87.9181 268.2731 0001986  94.6504 265.4857 13.20772544234389
ONEWEB-0362             
1 49288U 21090K   26199.26209796  .00001440  00000+0  35627-2 0  9994
2 49288  87.9182 298.7909 0002307 102.6313 257.5077 13.19737934231017
ONEWEB-0363             
1 49289U 21090L   26199.14852906  .00000116  00000+0  25375-3 0  9998
2 49289  87.9182 268.2700 0001764  95.5722 264.5612 13.20772453234393
ONEWEB-0364             
1 49290U 21090M   26199.18724646  .00000064  00000+0  12477-3 0  9994
2 49290  87.9184 268.2695 0002078  97.4013 262.7356 13.20770564235536
